CCSDS_OEM_VERS = 1.0
CREATION_DATE  = 2017-05-11T11:59:38
ORIGINATOR     = GMAT USER

META_START
OBJECT_NAME          = MOPSSat_alt_35785_km_RAAN_270_095
OBJECT_ID            = SatId
CENTER_NAME          = Earth
REF_FRAME            = EME2000
TIME_SYSTEM          = UTC
START_TIME           = 2017-01-01T00:00:00.000
USEABLE_START_TIME   = 2017-01-01T00:00:00.000
USEABLE_STOP_TIME    = 2017-01-02T00:00:00.000
STOP_TIME            = 2017-01-02T00:00:00.000
INTERPOLATION        = Lagrange
INTERPOLATION_DEGREE = 7 
META_STOP


                                                                                   

2017-01-01T11:00:00.000   9.599112000518384e+03   4.525734248862037e+04  -8.085868788494163e-01  -2.714186472432833e+00   6.410180873249545e-01   4.840356891994770e-05
2017-01-01T11:00:10.000   9.571968205556203e+03   4.526374356013143e+04  -8.081025197436361e-01  -2.714572387100588e+00   6.391961966358281e-01   4.846825230352001e-05
2017-01-01T11:00:20.000   9.544820557233650e+03   4.527012641176788e+04  -8.076175138342563e-01  -2.714957193143803e+00   6.373741240029749e-01   4.853293050084950e-05
2017-01-01T11:00:30.000   9.517669066424005e+03   4.527649104176319e+04  -8.071318611695110e-01  -2.715340890547095e+00   6.355518699474184e-01   4.859760347742486e-05
2017-01-01T11:00:40.000   9.490513743924437e+03   4.528283744837444e+04  -8.066455617966334e-01  -2.715723479296263e+00   6.337294349849661e-01   4.866227119891627e-05
2017-01-01T11:00:50.000   9.463354600807184e+03   4.528916562979767e+04  -8.061586157680638e-01  -2.716104959373160e+00   6.319068196497867e-01   4.872693363032251e-05
2017-01-01T11:01:00.000   9.436191648158985e+03   4.529547558423150e+04  -8.056710231368649e-01  -2.716485330759546e+00   6.300840244769103e-01   4.879159073660816e-05
2017-01-01T11:01:10.000   9.409024897080870e+03   4.530176730987601e+04  -8.051827839566870e-01  -2.716864593437010e+00   6.282610500022234e-01   4.885624248269808e-05
2017-01-01T11:01:20.000   9.381854358949868e+03   4.530804080487478e+04  -8.046938982865486e-01  -2.717242747383484e+00   6.264378967800176e-01   4.892088883287052e-05
2017-01-01T11:01:30.000   9.354680045066692e+03   4.531429606739403e+04  -8.042043661844295e-01  -2.717619792578005e+00   6.246145653593583e-01   4.898552975157982e-05
2017-01-01T11:01:40.000   9.327501966797121e+03   4.532053309559053e+04  -8.037141877098344e-01  -2.717995728998789e+00   6.227910562935702e-01   4.905016520312515e-05
2017-01-01T11:01:50.000   9.300320134948397e+03   4.532675188775472e+04  -8.032233629125450e-01  -2.718370556631852e+00   6.209673700983966e-01   4.911479515312138e-05
2017-01-01T11:02:00.000   9.273134560394368e+03   4.533295244216706e+04  -8.027318918438886e-01  -2.718744275462355e+00   6.191435072939449e-01   4.917941956702396e-05
2017-01-01T11:02:10.000   9.245945253914144e+03   4.533913475713536e+04  -8.022397745538370e-01  -2.719116885476847e+00   6.173194683938593e-01   4.924403841050963e-05
2017-01-01T11:02:20.000   9.218752226625809e+03   4.534529883089389e+04  -8.017470110987901e-01  -2.719488386657192e+00   6.154952539344288e-01   4.930865164845119e-05
2017-01-01T11:02:30.000   9.191555489628607e+03   4.535144466168693e+04  -8.012536015351639e-01  -2.719858778985603e+00   6.136708644505696e-01   4.937325924576325e-05
2017-01-01T11:02:40.000   9.164355054082755e+03   4.535757224775002e+04  -8.007595459208187e-01  -2.720228062443506e+00   6.118463004811876e-01   4.943786116721288e-05
2017-01-01T11:02:50.000   9.137150931188002e+03   4.536368158731631e+04  -8.002648443147130e-01  -2.720596237011933e+00   6.100215625677317e-01   4.950245737747230e-05
2017-01-01T11:03:00.000   9.109943132156324e+03   4.536977267862144e+04  -7.997694967763714e-01  -2.720963302671803e+00   6.081966512523669e-01   4.956704784118096e-05
2017-01-01T11:03:10.000   9.082731668202116e+03   4.537584551990597e+04  -7.992735033657130e-01  -2.721329259404082e+00   6.063715670773172e-01   4.963163252297075e-05
2017-01-01T11:03:20.000   9.055516550445016e+03   4.538190010943764e+04  -7.987768641412983e-01  -2.721694107191119e+00   6.045463105783462e-01   4.969621138768866e-05
2017-01-01T11:03:30.000   9.028297789974618e+03   4.538793644549619e+04  -7.982795791614828e-01  -2.722057846015721e+00   6.027208822890999e-01   4.976078440025186e-05
2017-01-01T11:03:40.000   9.001075397850516e+03   4.539395452637346e+04  -7.977816484844265e-01  -2.722420475861181e+00   6.008952827411097e-01   4.982535152564395e-05
2017-01-01T11:03:50.000   8.973849385037249e+03   4.539995435038713e+04  -7.972830721668794e-01  -2.722781996712079e+00   5.990695124594326e-01   4.988991272908195e-05
2017-01-01T11:04:00.000   8.946619762501774e+03   4.540593591585958e+04  -7.967838502659810e-01  -2.723142408553031e+00   5.972435719691859e-01   4.995446797577199e-05
2017-01-01T11:04:10.000   8.919386541223290e+03   4.541189922111600e+04  -7.962839828394468e-01  -2.723501711368566e+00   5.954174617962069e-01   5.001901723089118e-05
2017-01-01T11:04:20.000   8.892149732220152e+03   4.541784426447725e+04  -7.957834699460242e-01  -2.723859905142688e+00   5.935911824688608e-01   5.008356045950809e-05
2017-01-01T11:04:30.000   8.864909346571907e+03   4.542377104425650e+04  -7.952823116459424e-01  -2.724216989858689e+00   5.917647345195143e-01   5.014809762654649e-05
2017-01-01T11:04:40.000   8.837665395339061e+03   4.542967955877609e+04  -7.947805079994164e-01  -2.724572965500152e+00   5.899381184791591e-01   5.021262869696946e-05
2017-01-01T11:04:50.000   8.810417889922437e+03   4.543556980629149e+04  -7.942780590733266e-01  -2.724927832046378e+00   5.881113349014960e-01   5.027715363494439e-05
2017-01-01T11:05:00.000   8.783166841627772e+03   4.544144178508381e+04  -7.937749649331394e-01  -2.725281589477954e+00   5.862843843337540e-01   5.034167240485810e-05
2017-01-01T11:05:10.000   8.755912261827609e+03   4.544729549342523e+04  -7.932712256459058e-01  -2.725634237774676e+00   5.844572673275406e-01   5.040618497093931e-05
2017-01-01T11:05:20.000   8.728654161334394e+03   4.545313092971391e+04  -7.927668412686815e-01  -2.725985776923664e+00   5.826299843968141e-01   5.047069129872773e-05
2017-01-01T11:05:30.000   8.701392551025763e+03   4.545894809233912e+04  -7.922618118600695e-01  -2.726336206911260e+00   5.808025360598051e-01   5.053519135360867e-05
2017-01-01T11:05:40.000   8.674127441702904e+03   4.546474697971234e+04  -7.917561374776184e-01  -2.726685527724871e+00   5.789749228295198e-01   5.059968510114313e-05
2017-01-01T11:05:50.000   8.646858844443204e+03   4.547052759018940e+04  -7.912498181842808e-01  -2.727033739348308e+00   5.771471452373879e-01   5.066417250624660e-05
2017-01-01T11:06:00.000   8.619586770338574e+03   4.547628992212900e+04  -7.907428540436440e-01  -2.727380841765287e+00   5.753192038157130e-01   5.072865353379510e-05
2017-01-01T11:06:10.000   8.592311230495263e+03   4.548203397389160e+04  -7.902352451198935e-01  -2.727726834959379e+00   5.734910990976634e-01   5.079312814863029e-05
2017-01-01T11:06:20.000   8.565032236296576e+03   4.548775974378665e+04  -7.897269914827789e-01  -2.728071718910826e+00   5.716628316348732e-01   5.085759631492531e-05
2017-01-01T11:06:30.000   8.537749799049185e+03   4.549346723014469e+04  -7.892180932009603e-01  -2.728415493600879e+00   5.698344019737441e-01   5.092205799703418e-05
2017-01-01T11:06:40.000   8.510463930122405e+03   4.549915643128860e+04  -7.887085503446172e-01  -2.728758159010073e+00   5.680058106647791e-01   5.098651315915733e-05
2017-01-01T11:06:50.000   8.483174640332465e+03   4.550482734566214e+04  -7.881983629739550e-01  -2.729099715125968e+00   5.661770582213188e-01   5.105096176681135e-05
2017-01-01T11:07:00.000   8.455881940558193e+03   4.551047997170121e+04  -7.876875311506942e-01  -2.729440161935391e+00   5.643481451608038e-01   5.111540378535932e-05
2017-01-01T11:07:10.000   8.428585841601904e+03   4.551611430786342e+04  -7.871760549354831e-01  -2.729779499426218e+00   5.625190719954488e-01   5.117983918034523e-05
2017-01-01T11:07:20.000   8.401286354542402e+03   4.552173035255242e+04  -7.866639343944339e-01  -2.730117727582821e+00   5.606898392559099e-01   5.124426791664397e-05
2017-01-01T11:07:30.000   8.373983490473047e+03   4.552732810417476e+04  -7.861511695942969e-01  -2.730454846389482e+00   5.588604474737205e-01   5.130868995909627e-05
2017-01-01T11:07:40.000   8.346677260501541e+03   4.553290756113885e+04  -7.856377606024230e-01  -2.730790855830346e+00   5.570308971812818e-01   5.137310527250326e-05
2017-01-01T11:07:50.000   8.319367676012938e+03   4.553846872180376e+04  -7.851237074917879e-01  -2.731125755886325e+00   5.552011889294772e-01   5.143751382102195e-05
2017-01-01T11:08:00.000   8.292054748315564e+03   4.554401158454917e+04  -7.846090103342598e-01  -2.731459546539313e+00   5.533713232639563e-01   5.150191556898481e-05
2017-01-01T11:08:10.000   8.264738488783112e+03   4.554953614774693e+04  -7.840936692032919e-01  -2.731792227770477e+00   5.515413007346538e-01   5.156631048056962e-05
2017-01-01T11:08:20.000   8.237418908227863e+03   4.555504240988797e+04  -7.835776841620992e-01  -2.732123799567898e+00   5.497111218537997e-01   5.163069852126497e-05
2017-01-01T11:08:30.000   8.210096017529029e+03   4.556053036945491e+04  -7.830610552755052e-01  -2.732454261918896e+00   5.478807871380145e-01   5.169507965640074e-05
2017-01-01T11:08:40.000   8.182769827470564e+03   4.556600002495516e+04  -7.825437826068904e-01  -2.732783614812026e+00   5.460502970974436e-01   5.175945385152714e-05
2017-01-01T11:08:50.000   8.155440349177131e+03   4.557145137483145e+04  -7.820258662263788e-01  -2.733111858231690e+00   5.442196522649699e-01   5.182382107139340e-05
2017-01-01T11:09:00.000   8.128107593754414e+03   4.557688441753604e+04  -7.815073062040949e-01  -2.733438992162609e+00   5.423888531721102e-01   5.188818128079035e-05
